{"fetched_at":"2026-07-16T06:42:31.905Z","source":"https://celestrak.org/NORAD/elements/gp.php?GROUP=kuiper&FORMAT=JSON","constellation":"kuiper","records":[{"OBJECT_NAME":"KUIPER-00062","OBJECT_ID":"2025-134Y","EPOCH":"2026-07-15T17:41:23.700768","CLASSIFICATION_TYPE":"U","MEAN_MOTION":14.79937132,"ECCENTRICITY":0.00006907,"INCLINATION":51.8973,"RA_OF_ASC_NODE":24.3488,"ARG_OF_PERICENTER":115.9785,"MEAN_ANOMALY":244.1249,"EPHEMERIS_TYPE":0,"NORAD_CAT_ID":64522,"ELEMENT_SET_NO":999,"REV_AT_EPOCH":5907,"BSTAR":0.00023611324,"MEAN_MOTION_DOT":0.00001579,"MEAN_MOTION_DDOT":0},{"OBJECT_NAME":"KUIPER-00063","OBJECT_ID":"2025-134Z","EPOCH":"2026-07-15T22:21:30.475008","CLASSIFICATION_TYPE":"U","MEAN_MOTION":14.79931313,"ECCENTRICITY":0.00007277,"INCLINATION":51.9038,"RA_OF_ASC_NODE":31.0461,"ARG_OF_PERICENTER":109.8463,"MEAN_ANOMALY":250.2578,"EPHEMERIS_TYPE":0,"NORAD_CAT_ID":64523,"ELEMENT_SET_NO":999,"REV_AT_EPOCH":5899,"BSTAR":0.000054756882,"MEAN_MOTION_DOT":0.00000196,"MEAN_MOTION_DDOT":0},{"OBJECT_NAME":"KUIPER-00064","OBJECT_ID":"2025-134AA","EPOCH":"2026-07-15T22:25:21.914688","CLASSIFICATION_TYPE":"U","MEAN_MOTION":14.79938553,"ECCENTRICITY":0.00006953,"INCLINATION":51.9043,"RA_OF_ASC_NODE":28.4576,"ARG_OF_PERICENTER":115.0364,"MEAN_ANOMALY":245.067,"EPHEMERIS_TYPE":0,"NORAD_CAT_ID":64524,"ELEMENT_SET_NO":999,"REV_AT_EPOCH":5903,"BSTAR":0.0002305399,"MEAN_MOTION_DOT":0.00001537,"MEAN_MOTION_DDOT":0},{"OBJECT_NAME":"KUIPER-00065","OBJECT_ID":"2025-134AB","EPOCH":"2026-07-15T22:17:37.954464","CLASSIFICATION_TYPE":"U","MEAN_MOTION":14.79934421,"ECCENTRICITY":0.00007804,"INCLINATION":51.9054,"RA_OF_ASC_NODE":33.6514,"ARG_OF_PERICENTER":119.7449,"MEAN_ANOMALY":240.3591,"EPHEMERIS_TYPE":0,"NORAD_CAT_ID":64525,"ELEMENT_SET_NO":999,"REV_AT_EPOCH":5894,"BSTAR":0.00023788718,"MEAN_MOTION_DOT":0.00001593,"MEAN_MOTION_DDOT":0},{"OBJECT_NAME":"KUIPER-00066","OBJECT_ID":"2025-134AC","EPOCH":"2026-07-15T13:22:35.355360","CLASSIFICATION_TYPE":"U","MEAN_MOTION":14.79935679,"ECCENTRICITY":0.0000396,"INCLINATION":51.9032,"RA_OF_ASC_NODE":332.5733,"ARG_OF_PERICENTER":92.1728,"MEAN_ANOMALY":267.9279,"EPHEMERIS_TYPE":0,"NORAD_CAT_ID":64526,"ELEMENT_SET_NO":999,"REV_AT_EPOCH":5978,"BSTAR":0.00025385,"MEAN_MOTION_DOT":0.00001715,"MEAN_MOTION_DDOT":0},{"OBJECT_NAME":"KUIPER-00069","OBJECT_ID":"2025-151A","EPOCH":"2026-07-15T21:15:30.017376","CLASSIFICATION_TYPE":"U","MEAN_MOTION":14.79932721,"ECCENTRICITY":0.00007003,"INCLINATION":51.9023,"RA_OF_ASC_NODE":73.7615,"ARG_OF_PERICENTER":105.0049,"MEAN_ANOMALY":255.0991,"EPHEMERIS_TYPE":0,"NORAD_CAT_ID":64816,"ELEMENT_SET_NO":999,"REV_AT_EPOCH":5574,"BSTAR":0.00024319527,"MEAN_MOTION_DOT":0.00001633,"MEAN_MOTION_DDOT":0},{"OBJECT_NAME":"KUIPER-00070","OBJECT_ID":"2025-151B","EPOCH":"2026-07-15T21:25:16.415904","CLASSIFICATION_TYPE":"U","MEAN_MOTION":14.79930029,"ECCENTRICITY":0.00008084,"INCLINATION":51.9001,"RA_OF_ASC_NODE":98.6421,"ARG_OF_PERICENTER":103.877,"MEAN_ANOMALY":256.2282,"EPHEMERIS_TYPE":0,"NORAD_CAT_ID":64817,"ELEMENT_SET_NO":999,"REV_AT_EPOCH":5540,"BSTAR":0.00025184921,"MEAN_MOTION_DOT":0.00001699,"MEAN_MOTION_DDOT":0},{"OBJECT_NAME":"KUIPER-00071","OBJECT_ID":"2025-151C","EPOCH":"2026-07-15T21:29:09.241440","CLASSIFICATION_TYPE":"U","MEAN_MOTION":14.79942511,"ECCENTRICITY":0.00009327,"INCLINATION":51.9013,"RA_OF_ASC_NODE":96.1671,"ARG_OF_PERICENTER":110.864,"MEAN_ANOMALY":249.2423,"EPHEMERIS_TYPE":0,"NORAD_CAT_ID":64818,"ELEMENT_SET_NO":999,"REV_AT_EPOCH":5425,"BSTAR":0.00028617544,"MEAN_MOTION_DOT":0.00001962,"MEAN_MOTION_DDOT":0},{"OBJECT_NAME":"KUIPER-00072","OBJECT_ID":"2025-151D","EPOCH":"2026-07-15T21:11:33.722880","CLASSIFICATION_TYPE":"U","MEAN_MOTION":14.79950946,"ECCENTRICITY":0.00027225,"INCLINATION":51.8979,"RA_OF_ASC_NODE":76.1637,"ARG_OF_PERICENTER":151.3647,"MEAN_ANOMALY":208.7465,"EPHEMERIS_TYPE":0,"NORAD_CAT_ID":64819,"ELEMENT_SET_NO":999,"REV_AT_EPOCH":5453,"BSTAR":0.00023376431,"MEAN_MOTION_DOT":0.00001562,"MEAN_MOTION_DDOT":0},{"OBJECT_NAME":"KUIPER-00073","OBJECT_ID":"2025-151E","EPOCH":"2026-07-15T22:17:44.921760","CLASSIFICATION_TYPE":"U","MEAN_MOTION":14.79945122,"ECCENTRICITY":0.0001006,"INCLINATION":51.9004,"RA_OF_ASC_NODE":96.0025,"ARG_OF_PERICENTER":100.6648,"MEAN_ANOMALY":259.4428,"EPHEMERIS_TYPE":0,"NORAD_CAT_ID":64820,"ELEMENT_SET_NO":999,"REV_AT_EPOCH":5544,"BSTAR":0.00024424869,"MEAN_MOTION_DOT":0.00001642,"MEAN_MOTION_DDOT":0},{"OBJECT_NAME":"KUIPER-00074","OBJECT_ID":"2025-151F","EPOCH":"2026-07-15T22:05:40.325568","CLASSIFICATION_TYPE":"U","MEAN_MOTION":16.02364025,"ECCENTRICITY":0.00049871,"INCLINATION":51.8745,"RA_OF_ASC_NODE":353.862,"ARG_OF_PERICENTER":285.0615,"MEAN_ANOMALY":74.9848,"EPHEMERIS_TYPE":0,"NORAD_CAT_ID":64821,"ELEMENT_SET_NO":999,"REV_AT_EPOCH":5566,"BSTAR":0.00056475365,"MEAN_MOTION_DOT":0.00338432,"MEAN_MOTION_DDOT":0.000061179199},{"OBJECT_NAME":"KUIPER-00075","OBJECT_ID":"2025-151G","EPOCH":"2026-07-15T20:12:20.312064","CLASSIFICATION_TYPE":"U","MEAN_MOTION":15.45389816,"ECCENTRICITY":0.00038304,"INCLINATION":51.867,"RA_OF_ASC_NODE":316.239,"ARG_OF_PERICENTER":10.9956,"MEAN_ANOMALY":349.1117,"EPHEMERIS_TYPE":0,"NORAD_CAT_ID":64822,"ELEMENT_SET_NO":999,"REV_AT_EPOCH":5619,"BSTAR":0.0005558578,"MEAN_MOTION_DOT":0.00026679,"MEAN_MOTION_DDOT":0},{"OBJECT_NAME":"KUIPER-00076","OBJECT_ID":"2025-151H","EPOCH":"2026-07-15T22:33:18.935136","CLASSIFICATION_TYPE":"U","MEAN_MOTION":14.79931952,"ECCENTRICITY":0.00008646,"INCLINATION":51.9017,"RA_OF_ASC_NODE":85.975,"ARG_OF_PERICENTER":105.0073,"MEAN_ANOMALY":255.0985,"EPHEMERIS_TYPE":0,"NORAD_CAT_ID":64823,"ELEMENT_SET_NO":999,"REV_AT_EPOCH":5440,"BSTAR":0.00023691054,"MEAN_MOTION_DOT":0.00001585,"MEAN_MOTION_DDOT":0},{"OBJECT_NAME":"KUIPER-00077","OBJECT_ID":"2025-151J","EPOCH":"2026-07-15T22:25:33.310848","CLASSIFICATION_TYPE":"U","MEAN_MOTION":14.79933243,"ECCENTRICITY":0.00008025,"INCLINATION":51.9022,"RA_OF_ASC_NODE":91.0176,"ARG_OF_PERICENTER":105.5266,"MEAN_ANOMALY":254.5785,"EPHEMERIS_TYPE":0,"NORAD_CAT_ID":64824,"ELEMENT_SET_NO":999,"REV_AT_EPOCH":5433,"BSTAR":0.00024414371,"MEAN_MOTION_DOT":0.0000164,"MEAN_MOTION_DDOT":0},{"OBJECT_NAME":"KUIPER-00078","OBJECT_ID":"2025-151K","EPOCH":"2026-07-15T21:40:48.561312","CLASSIFICATION_TYPE":"U","MEAN_MOTION":14.79929893,"ECCENTRICITY":0.00007622,"INCLINATION":51.9011,"RA_OF_ASC_NODE":88.6329,"ARG_OF_PERICENTER":104.1149,"MEAN_ANOMALY":255.9898,"EPHEMERIS_TYPE":0,"NORAD_CAT_ID":64825,"ELEMENT_SET_NO":999,"REV_AT_EPOCH":5436,"BSTAR":0.00023757955,"MEAN_MOTION_DOT":0.0000159,"MEAN_MOTION_DDOT":0},{"OBJECT_NAME":"KUIPER-00079","OBJECT_ID":"2025-151L","EPOCH":"2026-07-15T22:21:38.577600","CLASSIFICATION_TYPE":"U","MEAN_MOTION":14.7993593,"ECCENTRICITY":0.00007304,"INCLINATION":51.9005,"RA_OF_ASC_NODE":93.4675,"ARG_OF_PERICENTER":104.5156,"MEAN_ANOMALY":255.5887,"EPHEMERIS_TYPE":0,"NORAD_CAT_ID":64826,"ELEMENT_SET_NO":999,"REV_AT_EPOCH":5549,"BSTAR":0.00023779649,"MEAN_MOTION_DOT":0.00001592,"MEAN_MOTION_DDOT":0}]}
