KUIPER-00062            
1 64522U 25134Y   26196.73707987  .00001579  00000+0  23611-3 0  9993
2 64522  51.8973  24.3488 0000690 115.9785 244.1249 14.79937132 59077
KUIPER-00063            
1 64523U 25134Z   26196.93160272  .00000196  00000+0  54757-4 0  9996
2 64523  51.9038  31.0461 0000727 109.8463 250.2578 14.79931313 58991
KUIPER-00064            
1 64524U 25134AA  26196.93428142  .00001537  00000+0  23054-3 0  9995
2 64524  51.9043  28.4576 0000695 115.0364 245.0670 14.79938553 59032
KUIPER-00065            
1 64525U 25134AB  26196.92891151  .00001593  00000+0  23789-3 0  9996
2 64525  51.9054  33.6514 0000780 119.7449 240.3591 14.79934421 58944
KUIPER-00066            
1 64526U 25134AC  26196.55735365  .00001715  00000+0  25385-3 0  9990
2 64526  51.9032 332.5733 0000396  92.1728 267.9279 14.79935679 59789
KUIPER-00069            
1 64816U 25151A   26196.88576409  .00001633  00000+0  24320-3 0  9996
2 64816  51.9023  73.7615 0000700 105.0049 255.0991 14.79932721 55749
KUIPER-00070            
1 64817U 25151B   26196.89255111  .00001699  00000+0  25185-3 0  9994
2 64817  51.9001  98.6421 0000808 103.8770 256.2282 14.79930029 55401
KUIPER-00071            
1 64818U 25151C   26196.89524585  .00001962  00000+0  28618-3 0  9996
2 64818  51.9013  96.1671 0000932 110.8640 249.2423 14.79942511 54257
KUIPER-00072            
1 64819U 25151D   26196.88302920  .00001562  00000+0  23376-3 0  9995
2 64819  51.8979  76.1637 0002722 151.3647 208.7465 14.79950946 54532
KUIPER-00073            
1 64820U 25151E   26196.92899215  .00001642  00000+0  24425-3 0  9995
2 64820  51.9004  96.0025 0001006 100.6648 259.4428 14.79945122 55441
KUIPER-00074            
1 64821U 25151F   26196.92060562  .00338432  61179-4  56475-3 0  9990
2 64821  51.8745 353.8620 0004987 285.0615  74.9848 16.02364025 55666
KUIPER-00075            
1 64822U 25151G   26196.84190176  .00026679  00000+0  55586-3 0  9997
2 64822  51.8670 316.2390 0003830  10.9956 349.1117 15.45389816 56196
KUIPER-00076            
1 64823U 25151H   26196.93980249  .00001585  00000+0  23691-3 0  9997
2 64823  51.9017  85.9750 0000864 105.0073 255.0985 14.79931952 54403
KUIPER-00077            
1 64824U 25151J   26196.93441332  .00001640  00000+0  24414-3 0  9999
2 64824  51.9022  91.0176 0000802 105.5266 254.5785 14.79933243 54330
KUIPER-00078            
1 64825U 25151K   26196.90333983  .00001590  00000+0  23758-3 0  9993
2 64825  51.9011  88.6329 0000762 104.1149 255.9898 14.79929893 54360
KUIPER-00079            
1 64826U 25151L   26196.93169650  .00001592  00000+0  23780-3 0  9992
2 64826  51.9005  93.4675 0000730 104.5156 255.5887 14.79935930 55497
